IRIDIUM 159             
1 43578U 18061K   23240.91137386  .00000268  00000+0  88606-4 0  9999
2 43578  86.3971 124.4075 0002077  86.8292 273.3141 14.34218292266716
IRIDIUM 180             
1 43922U 19002A   23240.77133187  .00000100  00000+0  28471-4 0  9996
2 43922  86.3927  61.3010 0001934  88.8163 271.3255 14.34216852242301
IRIDIUM 176             
1 43923U 19002B   23240.76923130  .00000415  00000+0  61869-4 0  9998
2 43923  86.6058  61.3373 0002375  88.9778 271.1711 14.72256226248677
IRIDIUM 168             
1 43924U 19002C   23240.76500104  .00000103  00000+0  29708-4 0  9991
2 43924  86.3929  61.3520 0002027  89.7978 270.3450 14.34218590242283
IRIDIUM 173             
1 43925U 19002D   23240.89185087  .00000111  00000+0  32703-4 0  9993
2 43925  86.3925  61.2296 0002066  92.4802 267.6630 14.34216094242285
IRIDIUM 169             
1 43926U 19002E   23240.87825021  .00000367  00000+0  11335-3 0  9991
2 43926  86.4178  92.8750 0005334 104.4919 255.6871 14.38616107243105
IRIDIUM 172             
1 43927U 19002F   23240.88546991  .00000202  00000+0  64877-4 0  9997
2 43927  86.3925  61.2370 0002088  89.3048 270.8387 14.34233444242295
IRIDIUM 175             
1 43928U 19002G   23240.76302244 -.00000363  00000+0 -61509-4 0  9995
2 43928  86.1485  51.0619 0002034  90.4567 269.6883 14.72245844248661
